{"type": "FeatureCollection", "features": [ {"type": "Feature", "properties": {"norad_id": 34409, "name": "COSMOS 2251 DEB", "group": "cosmos-2251-debris", "lat": 46.56304893491486, "lon": 87.58061241461692, "alt_km": 734.5854926825705, "timestamp": "2025-12-24T03:53:30.041473+00:00", "meta": {"OBJECT_NAME": "COSMOS 2251 DEB", "OBJECT_ID": "1993-036RA", "EPOCH": "2025-12-23T13:17:14.817408", "MEAN_MOTION": 14.58052259, "ECCENTRICITY": 0.0080345, "INCLINATION": 74.0637, "RA_OF_ASC_NODE": 286.2993, "ARG_OF_PERICENTER": 357.8117, "MEAN_ANOMALY": 179.668, "EPHEMERIS_TYPE": 0, "CLASSIFICATION_TYPE": "U", "NORAD_CAT_ID": 34409, "ELEMENT_SET_NO": 999, "REV_AT_EPOCH": 89350, "BSTAR": 0.00023055, "MEAN_MOTION_DOT": 1.077e-05, "MEAN_MOTION_DDOT": 0}, "tle": {"line1": "1 34409U 93036RA  25357.55364372  .00001077  00000+0  23055-3 0  9990", "line2": "2 34409  74.0637 286.2993 0080345 357.8117 179.6680 14.58052259893503"}}, "geometry": {"type": "Point", "coordinates": [87.58061241461692, 46.56304893491486]}}, {"type": "Feature", "properties": {"norad_id": 34410, "name": "COSMOS 2251 DEB", "group": "cosmos-2251-debris", "lat": 7.3057889213456075, "lon": 55.23732886496385, "alt_km": 509.09041772583987, "timestamp": "2025-12-24T03:53:30.041484+00:00", "meta": {"OBJECT_NAME": "COSMOS 2251 DEB", "OBJECT_ID": "1993-036RB", "EPOCH": "2025-12-23T13:14:33.466272", "MEAN_MOTION": 15.1988126, "ECCENTRICITY": 0.002122, "INCLINATION": 73.7364, "RA_OF_ASC_NODE": 238.6843, "ARG_OF_PERICENTER": 78.1969, "MEAN_ANOMALY": 355.4641, "EPHEMERIS_TYPE": 0, "CLASSIFICATION_TYPE": "U", "NORAD_CAT_ID": 34410, "ELEMENT_SET_NO": 999, "REV_AT_EPOCH": 89938, "BSTAR": 0.0021347, "MEAN_MOTION_DOT": 0.00046365, "MEAN_MOTION_DDOT": 0}, "tle": {"line1": "1 34410U 93036RB  25357.55177623  .00046365  00000+0  21347-2 0  9993", "line2": "2 34410  73.7364 238.6843 0021220  78.1969 355.4641 15.19881260899381"}}, "geometry": {"type": "Point", "coordinates": [55.23732886496385, 7.3057889213456075]}}, {"type": "Feature", "properties": {"norad_id": 34412, "name": "COSMOS 2251 DEB", "group": "cosmos-2251-debris", "lat": -67.14050020708989, "lon": 166.1978623814248, "alt_km": 845.7497950574916, "timestamp": "2025-12-24T03:53:30.041494+00:00", "meta": {"OBJECT_NAME": "COSMOS 2251 DEB", "OBJECT_ID": "1993-036RD", "EPOCH": "2025-12-22T14:13:35.844672", "MEAN_MOTION": 14.4724847, "ECCENTRICITY": 0.01875767, "INCLINATION": 73.949, "RA_OF_ASC_NODE": 306.0781, "ARG_OF_PERICENTER": 38.8594, "MEAN_ANOMALY": 322.5877, "EPHEMERIS_TYPE": 0, "CLASSIFICATION_TYPE": "U", "NORAD_CAT_ID": 34412, "ELEMENT_SET_NO": 999, "REV_AT_EPOCH": 87793, "BSTAR": 0.0016240392, "MEAN_MOTION_DOT": 7.383e-05, "MEAN_MOTION_DDOT": 0}, "tle": {"line1": "1 34412U 93036RD  25356.59277598  .00007383  00000+0  16240-2 0  9993", "line2": "2 34412  73.9490 306.0781 0187576  38.8594 322.5877 14.47248470877933"}}, "geometry": {"type": "Point", "coordinates": [166.1978623814248, -67.14050020708989]}}, {"type": "Feature", "properties": {"norad_id": 34413, "name": "COSMOS 2251 DEB", "group": "cosmos-2251-debris", "lat": 5.011649705607948, "lon": -114.42860771419241, "alt_km": 751.4539044757903, "timestamp": "2025-12-24T03:53:30.041506+00:00", "meta": {"OBJECT_NAME": "COSMOS 2251 DEB", "OBJECT_ID": "1993-036RE", "EPOCH": "2025-12-23T16:14:35.718720", "MEAN_MOTION": 14.29175636, "ECCENTRICITY": 0.0090963, "INCLINATION": 74.0302, "RA_OF_ASC_NODE": 245.0137, "ARG_OF_PERICENTER": 319.4831, "MEAN_ANOMALY": 68.9357, "EPHEMERIS_TYPE": 0, "CLASSIFICATION_TYPE": "U", "NORAD_CAT_ID": 34413, "ELEMENT_SET_NO": 999, "REV_AT_EPOCH": 87287, "BSTAR": 0.0013176, "MEAN_MOTION_DOT": 3.472e-05, "MEAN_MOTION_DDOT": 0}, "tle": {"line1": "1 34413U 93036RE  25357.67680230  .00003472  00000+0  13176-2 0  9995", "line2": "2 34413  74.0302 245.0137 0090963 319.4831  68.9357 14.29175636872875"}}, "geometry": {"type": "Point", "coordinates": [-114.42860771419241, 5.011649705607948]}}, {"type": "Feature", "properties": {"norad_id": 34420, "name": "COSMOS 2251 DEB", "group": "cosmos-2251-debris", "lat": -73.89014693207788, "lon": -15.699705994638395, "alt_km": 644.2255168269148, "timestamp": "2025-12-24T03:53:30.041516+00:00", "meta": {"OBJECT_NAME": "COSMOS 2251 DEB", "OBJECT_ID": "1993-036RM", "EPOCH": "2025-12-22T17:02:12.753312", "MEAN_MOTION": 14.6832519, "ECCENTRICITY": 0.01061899, "INCLINATION": 74.0333, "RA_OF_ASC_NODE": 84.6741, "ARG_OF_PERICENTER": 203.4437, "MEAN_ANOMALY": 309.7796, "EPHEMERIS_TYPE": 0, "CLASSIFICATION_TYPE": "U", "NORAD_CAT_ID": 34420, "ELEMENT_SET_NO": 999, "REV_AT_EPOCH": 89916, "BSTAR": 0.00019514401, "MEAN_MOTION_DOT": 1.191e-05, "MEAN_MOTION_DDOT": 0}, "tle": {"line1": "1 34420U 93036RM  25356.70986983  .00001191  00000+0  19514-3 0  9999", "line2": "2 34420  74.0333  84.6741 0106189 203.4437 309.7796 14.68325190899166"}}, "geometry": {"type": "Point", "coordinates": [-15.699705994638395, -73.89014693207788]}}, {"type": "Feature", "properties": {"norad_id": 34425, "name": "COSMOS 2251 DEB", "group": "cosmos-2251-debris", "lat": 70.59734286935824, "lon": 158.16821481527782, "alt_km": 669.05171766892, "timestamp": "2025-12-24T03:53:30.041527+00:00", "meta": {"OBJECT_NAME": "COSMOS 2251 DEB", "OBJECT_ID": "1993-036RS", "EPOCH": "2025-12-23T12:39:07.038720", "MEAN_MOTION": 14.62182484, "ECCENTRICITY": 0.0024192, "INCLINATION": 74.0191, "RA_OF_ASC_NODE": 33.8391, "ARG_OF_PERICENTER": 157.2466, "MEAN_ANOMALY": 202.9779, "EPHEMERIS_TYPE": 0, "CLASSIFICATION_TYPE": "U", "NORAD_CAT_ID": 34425, "ELEMENT_SET_NO": 999, "REV_AT_EPOCH": 88898, "BSTAR": 0.00050089, "MEAN_MOTION_DOT": 2.502e-05, "MEAN_MOTION_DDOT": 0}, "tle": {"line1": "1 34425U 93036RS  25357.52716480  .00002502  00000+0  50089-3 0  9997", "line2": "2 34425  74.0191  33.8391 0024192 157.2466 202.9779 14.62182484888985"}}, "geometry": {"type": "Point", "coordinates": [158.16821481527782, 70.59734286935824]}}, {"type": "Feature", "properties": {"norad_id": 34429, "name": "COSMOS 2251 DEB", "group": "cosmos-2251-debris", "lat": -72.48229195685046, "lon": 77.43142173678173, "alt_km": 430.5846331807443, "timestamp": "2025-12-24T03:53:30.041537+00:00", "meta": {"OBJECT_NAME": "COSMOS 2251 DEB", "OBJECT_ID": "1993-036RW", "EPOCH": "2025-12-22T20:09:55.980864", "MEAN_MOTION": 15.4576195, "ECCENTRICITY": 0.00125011, "INCLINATION": 73.9678, "RA_OF_ASC_NODE": 145.9744, "ARG_OF_PERICENTER": 346.9165, "MEAN_ANOMALY": 135.8075, "EPHEMERIS_TYPE": 0, "CLASSIFICATION_TYPE": "U", "NORAD_CAT_ID": 34429, "ELEMENT_SET_NO": 999, "REV_AT_EPOCH": 89604, "BSTAR": 0.005332713, "MEAN_MOTION_DOT": 0.00267889, "MEAN_MOTION_DDOT": 0}, "tle": {"line1": "1 34429U 93036RW  25356.84023126  .00267889  00000+0  53327-2 0  9991", "line2": "2 34429  73.9678 145.9744 0012501 346.9165 135.8075 15.45761950896040"}}, "geometry": {"type": "Point", "coordinates": [77.43142173678173, -72.48229195685046]}}, {"type": "Feature", "properties": {"norad_id": 34430, "name": "COSMOS 2251 DEB", "group": "cosmos-2251-debris", "lat": 36.74978051228997, "lon": -65.3835055988549, "alt_km": 728.1730120472794, "timestamp": "2025-12-24T03:53:30.041548+00:00", "meta": {"OBJECT_NAME": "COSMOS 2251 DEB", "OBJECT_ID": "1993-036RX", "EPOCH": "2025-12-23T12:42:21.180384", "MEAN_MOTION": 14.39663189, "ECCENTRICITY": 0.0060842, "INCLINATION": 74.0519, "RA_OF_ASC_NODE": 283.4543, "ARG_OF_PERICENTER": 350.5877, "MEAN_ANOMALY": 9.4132, "EPHEMERIS_TYPE": 0, "CLASSIFICATION_TYPE": "U", "NORAD_CAT_ID": 34430, "ELEMENT_SET_NO": 999, "REV_AT_EPOCH": 88110, "BSTAR": 0.00041787, "MEAN_MOTION_DOT": 1.309e-05, "MEAN_MOTION_DDOT": 0}, "tle": {"line1": "1 34430U 93036RX  25357.52941181  .00001309  00000+0  41787-3 0  9990", "line2": "2 34430  74.0519 283.4543 0060842 350.5877   9.4132 14.39663189881103"}}, "geometry": {"type": "Point", "coordinates": [-65.3835055988549, 36.74978051228997]}}, {"type": "Feature", "properties": {"norad_id": 34431, "name": "COSMOS 2251 DEB", "group": "cosmos-2251-debris", "lat": -33.14657111689018, "lon": -14.729358461479766, "alt_km": 790.5165019577871, "timestamp": "2025-12-24T03:53:30.041558+00:00", "meta": {"OBJECT_NAME": "COSMOS 2251 DEB", "OBJECT_ID": "1993-036RY", "EPOCH": "2025-12-22T20:38:58.327584", "MEAN_MOTION": 14.28807603, "ECCENTRICITY": 0.0067807, "INCLINATION": 74.0738, "RA_OF_ASC_NODE": 156.8796, "ARG_OF_PERICENTER": 139.8863, "MEAN_ANOMALY": 220.7322, "EPHEMERIS_TYPE": 0, "CLASSIFICATION_TYPE": "U", "NORAD_CAT_ID": 34431, "ELEMENT_SET_NO": 999, "REV_AT_EPOCH": 87287, "BSTAR": 0.00065336, "MEAN_MOTION_DOT": 1.663e-05, "MEAN_MOTION_DDOT": 0}, "tle": {"line1": "1 34431U 93036RY  25356.86039731  .00001663  00000+0  65336-3 0  9995", "line2": "2 34431  74.0738 156.8796 0067807 139.8863 220.7322 14.28807603872873"}}, "geometry": {"type": "Point", "coordinates": [-14.729358461479766, -33.14657111689018]}}, {"type": "Feature", "properties": {"norad_id": 34432, "name": "COSMOS 2251 DEB", "group": "cosmos-2251-debris", "lat": -56.06586393416282, "lon": -72.25051924554903, "alt_km": 857.5260524274117, "timestamp": "2025-12-24T03:53:30.041568+00:00", "meta": {"OBJECT_NAME": "COSMOS 2251 DEB", "OBJECT_ID": "1993-036RZ", "EPOCH": "2025-12-22T17:16:08.561856", "MEAN_MOTION": 14.02946271, "ECCENTRICITY": 0.0181626, "INCLINATION": 73.8281, "RA_OF_ASC_NODE": 84.7419, "ARG_OF_PERICENTER": 165.8591, "MEAN_ANOMALY": 348.5505, "EPHEMERIS_TYPE": 0, "CLASSIFICATION_TYPE": "U", "NORAD_CAT_ID": 34432, "ELEMENT_SET_NO": 999, "REV_AT_EPOCH": 85824, "BSTAR": 0.0009096832, "MEAN_MOTION_DOT": 1.607e-05, "MEAN_MOTION_DDOT": 0}, "tle": {"line1": "1 34432U 93036RZ  25356.71954354  .00001607  00000+0  90968-3 0  9994", "line2": "2 34432  73.8281  84.7419 0181626 165.8591 348.5505 14.02946271858242"}}, "geometry": {"type": "Point", "coordinates": [-72.25051924554903, -56.06586393416282]}}]}